SONATE                  
1 44400U 19038Q   24147.54268673  .00018072  00000+0  56122-3 0  9998
2 44400  97.7122 140.6878 0016880 174.4392 185.7040 15.33290395270766
LUCKY-7                 
1 44406U 19038W   24147.51680512  .00032621  00000+0  74803-3 0  9993
2 44406  97.7026 144.4565 0015113 157.0546 203.1379 15.42561047271021
BEESAT 9                
1 44412U 19038AC  24147.75177992  .00869484  36192-3  17133-2 0  9991
2 44412  97.6701 154.4170 0010304 169.2111 190.9389 16.00020836271430
JAISAT-1                
1 44419U 19038F   24147.53204328  .00546706  12039-3  16197-2 0  9990
2 44419  97.6675 154.9915 0010216 156.3536 203.8209 15.92440038271760
DUCHIFAT-3              
1 44854U 19089C   24147.78722310  .00013420  00000+0  69108-3 0  9996
2 44854  36.9552 178.8854 0007826 263.1455  96.8402 15.15777871244959
M2 PATHFINDER           
1 45727U 20037E   24147.46352609  .00003376  00000+0  29815-3 0  9996
2 45727  97.7764 324.0173 0010926 190.1941 169.9061 14.96999420212695
NETSAT-4                
1 46504U 20068U   24147.86985508  .00010177  00000+0  55081-3 0  9999
2 46504  97.8058 104.4425 0012347  79.2307 281.0313 15.14782696200945
NETSAT-3                
1 46505U 20068V   24147.84646474  .00009724  00000+0  53475-3 0  9995
2 46505  97.8025 103.9520 0011504  86.5453 273.7094 15.14236236200934
NETSAT-1                
1 46506U 20068W   24147.41054388  .00008188  00000+0  47134-3 0  9994
2 46506  97.8052 103.0285 0010238  95.9365 264.3032 15.12663517200834
NETSAT-2                
1 46507U 20068X   24147.81958888  .00010587  00000+0  57467-3 0  9993
2 46507  97.8042 104.0302 0009735  98.9515 261.2818 15.14692231200885
WILDTRACKCUBE-SIMBA     
1 47941U 21022K   24147.85978983  .00012761  00000+0  57841-3 0  9991
2 47941  97.4626  44.8245 0014517 212.1849 147.8502 15.20887849175229
BEESAT-6                
1 47957U 21022AB  24146.70535312  .00177790  00000+0  19926-2 0  9991
2 47957  97.4369  53.8100 0010545 149.9078 210.2787 15.62032782175547
SMOG-1                  
1 47964U 21022AJ  24147.27765449  .00153676  00000+0  18666-2 0  9995
2 47964  97.4637  57.5161 0011532 144.7547 215.4475 15.59995687174810
BCCSAT-1                
1 48041U 21022AK  24147.71973928  .00062689  00000+0  12825-2 0  9998
2 48041  97.4641  54.1924 0009912 150.1069 210.0747 15.45858055174614
BEESAT-5                
1 48083U 21022AM  24147.19487291  .00410792  00000+0  24610-2 0  9996
2 48083  97.4039  55.6731 0011728 143.4401 216.7668 15.76603956174893
BEESAT-7                
1 48084U 21022AN  24146.72341561  .00129696  00000+0  18714-2 0  9992
2 48084  97.4613  53.9235 0011175 157.7091 202.4651 15.55462026174264
BEESAT-8                
1 48085U 21022AP  24147.53634817  .00025716  00000+0  84537-3 0  9997
2 48085  97.4777  49.4097 0011816 189.5847 170.5171 15.31460364174568
LEDSAT                  
1 49069U 21073D   24147.72255724  .00014673  00000+0  60276-3 0  9997
2 49069  97.4379 219.0072 0018807   3.3847 356.7514 15.24134387153186
SITRO-AIS 5 (KATYS)     
1 57176U 23091L   24147.86253905  .00007336  00000+0  47739-3 0  9998
2 57176  97.6135 200.2324 0017882 189.1790 170.9114 15.08133423 50281
SITRO-AIS 6 (CHIRKIN)   
1 57192U 23091AC  24147.84855022  .00007255  00000+0  47148-3 0  9996
2 57192  97.6125 200.2418 0017708 189.7524 170.3363 15.08190413 50282
SITRO-AIS 8 (ANOKHIN)   
1 57193U 23091AD  24147.82079453  .00008698  00000+0  55980-3 0  9996
2 57193  97.6131 200.2708 0017453 190.8360 169.2495 15.08489760 50289
SITRO-AIS 7 (FARTUSHNIY)
1 57194U 23091AE  24147.85294580  .00007184  00000+0  46744-3 0  9997
2 57194  97.6126 200.2300 0017576 189.9569 170.1313 15.08149197 50285
SITRO-AIS 10 (BURDAEV)  
1 57199U 23091AK  24147.88273984  .00009378  00000+0  57550-3 0  9994
2 57199  97.6147 201.1706 0012892 176.9999 183.1310 15.10267413 50345
SITRO-AIS 9 (SHCHUKIN)  
1 57201U 23091AM  24147.81459607  .00009192  00000+0  56447-3 0  9997
2 57201  97.6143 201.0855 0012858 176.9848 183.1461 15.10250764 50331
SITRO-AIS 12 (SMIRENNIY)
1 57204U 23091AQ  24147.84600353  .00009174  00000+0  56047-3 0  9995
2 57204  97.6144 201.2391 0012944 172.0854 188.0581 15.10436792 50347
SITRO-AIS 11 (SHEFFER)  
1 57208U 23091AU  24147.83284809  .00010022  00000+0  61051-3 0  9997
2 57208  97.6144 201.2461 0012747 172.4358 187.7066 15.10519641 50342
SITRO-AIS 29            
1 59052U 24039B   24147.86787877  .00021435  00000+0  80900-3 0  9999
2 59052  97.3915 110.0609 0015262 294.4447  65.5200 15.26937948 13347
SITRO-AIS 30            
1 59053U 24039C   24147.86713585  .00020508  00000+0  77450-3 0  9991
2 59053  97.3913 110.0589 0015414 295.4424  64.5219 15.26924621 13330
SITRO-AIS 31            
1 59054U 24039D   24147.86201965  .00020006  00000+0  75334-3 0  9998
2 59054  97.3914 110.0658 0015296 295.3230  64.6424 15.27028055 13359
SITRO-AIS 33            
1 59055U 24039E   24147.85590297  .00022145  00000+0  83025-3 0  9999
2 59055  97.3918 110.0773 0015043 296.3774  63.5920 15.27154661 13347
SITRO-AIS 35            
1 59056U 24039F   24147.85292330  .00021916  00000+0  82071-3 0  9992
2 59056  97.3916 110.0797 0014847 296.5165  63.4551 15.27198798 13347
SITRO-AIS 32            
1 59057U 24039G   24147.85716756  .00021412  00000+0  80495-3 0  9995
2 59057  97.3916 110.0749 0014896 296.6906  63.2808 15.27074601 13342
SITRO-AIS 34            
1 59058U 24039H   24147.85495120  .00022100  00000+0  82908-3 0  9991
2 59058  97.3919 110.0795 0015036 296.5033  63.4663 15.27135315 13345
SITRO-AIS 36            
1 59059U 24039J   24147.84948764  .00023042  00000+0  86125-3 0  9999
2 59059  97.3915 110.0846 0014570 296.6852  63.2895 15.27254825 13344
SITRO-AIS 49            
1 59060U 24039K   24147.84905366  .00022346  00000+0  83615-3 0  9999
2 59060  97.3916 110.0849 0014640 296.3033  63.6702 15.27223050 13343
SITRO-AIS 50            
1 59061U 24039L   24147.84328938  .00022746  00000+0  84690-3 0  9992
2 59061  97.3915 110.0922 0014527 296.6611  63.3140 15.27385600 13347
SITRO-AIS 51            
1 59062U 24039M   24147.84244030  .00021927  00000+0  81714-3 0  9997
2 59062  97.3916 110.0936 0014509 296.3767  63.5982 15.27363968 13342
SITRO-AIS 52            
1 59063U 24039N   24147.83783187  .00021677  00000+0  80597-3 0  9998
2 59063  97.3917 110.1001 0014328 296.3646  63.6121 15.27443863 13342
SITRO-AIS 25            
1 59066U 24039R   24147.88404889  .00008136  00000+0  77741-3 0  9997
2 59066  95.4033  82.9354 0174673  56.7741 305.0086 14.82506982 12955
SITRO-AIS 26            
1 59067U 24039S   24147.88336958  .00007595  00000+0  72655-3 0  9996
2 59067  95.4033  82.9355 0174533  56.8023 304.9795 14.82494956 12958
SITRO-AIS 27            
1 59068U 24039T   24147.87638138  .00007893  00000+0  75269-3 0  9996
2 59068  95.4035  82.9444 0174234  56.6773 305.0993 14.82640916 12959
SITRO-AIS 28            
1 59071U 24039U   24147.87438221  .00007916  00000+0  75443-3 0  9991
2 59071  95.4035  82.9471 0174083  56.6771 305.0982 14.82676123 12950
BEIJING 1               
1 28890U 05043A   24147.87913119  .00000698  00000+0  14735-3 0  9991
2 28890  98.1974 270.8947 0016137 111.6011 248.6911 14.62327468990780
HUANJING 1A (HJ-1A)     
1 33320U 08041A   24147.86562268  .00002344  00000+0  31617-3 0  9998
2 33320  97.6311 155.9335 0022016  82.0150 278.3560 14.79863459847206
HUANJING 1B (HJ-1B)     
1 33321U 08041B   24147.87412758  .00001738  00000+0  23229-3 0  9994
2 33321  97.6263 160.4819 0039838 124.5276 235.9709 14.80184642847220
YAOGAN-4                
1 33446U 08061A   24147.79162148  .00001341  00000+0  18492-3 0  9996
2 33446  97.8801  80.0788 0015513   0.7653 359.3580 14.79761368834394
DEIMOS-1                
1 35681U 09041A   24147.80210863  .00000972  00000+0  15756-3 0  9997
2 35681  97.6800 330.8729 0002872  93.5893 266.5644 14.73293228796166
UK-DMC 2                
1 35683U 09041C   24147.87761825  .00001566  00000+0  24969-3 0  9991
2 35683  97.7788 296.4049 0001488 100.6146 259.5230 14.73269952795876
DMC3-FM1                
1 40715U 15032A   24147.92027607  .00001222  00000+0  15436-3 0  9997
2 40715  97.7528  27.4559 0006078  17.7732 342.3694 14.83642837478429
DMC3-FM2                
1 40716U 15032B   24147.87579193  .00001202  00000+0  15180-3 0  9998
2 40716  97.7581  28.4677 0008067  18.7646 341.3864 14.83648614478412
DMC3-FM3                
1 40717U 15032C   24147.89962906  .00000968  00000+0  12369-3 0  9993
2 40717  97.7630  29.7552 0009440  13.8498 346.2973 14.83587762478423
NOAA 15                 
1 25338U 98030A   24147.84493332  .00000358  00000+0  16613-3 0  9990
2 25338  98.5696 175.4164 0010862  33.6501 326.5367 14.26586549354395
DMSP 5D-3 F16 (USA 172) 
1 28054U 03048A   24147.86357848  .00000188  00000+0  12267-3 0  9998
2 28054  99.0206 154.1324 0008368 110.1466  14.4742 14.14029087 63266
NOAA 18                 
1 28654U 05018A   24147.82660745  .00000322  00000+0  19518-3 0  9998
2 28654  98.8743 224.9685 0015277 122.3608 237.9045 14.13215909980244
METEOSAT-9 (MSG-2)      
1 28912U 05049B   24146.90703616  .00000138  00000+0  00000+0 0  9999
2 28912   7.6366  61.0536 0001735   2.3988 192.8132  1.00267772 67505
EWS-G1 (GOES 13)        
1 29155U 06018A   24147.39216958 -.00000228  00000+0  00000+0 0  9999
2 29155   2.5695  85.5242 0082699 254.9593  10.2252  0.99108574 35810
DMSP 5D-3 F17 (USA 191) 
1 29522U 06050A   24147.89470511  .00000203  00000+0  12831-3 0  9996
2 29522  98.7440 158.9107 0010966  45.5394 314.6675 14.14478798906186
FENGYUN 3A              
1 32958U 08026A   24147.88071517  .00000258  00000+0  14364-3 0  9993
2 32958  98.6030  95.6172 0009554 129.0613 231.1414 14.19093626828937
